{"fetched_at":"2026-07-14T17:40:45.019Z","source":"https://celestrak.org/NORAD/elements/gp.php?NAME=GLOBAL&FORMAT=JSON","constellation":"blacksky-gen2","records":[{"OBJECT_NAME":"GLOBAL-2","OBJECT_ID":"2018-099BG","EPOCH":"2026-07-14T01:37:47.970048","CLASSIFICATION_TYPE":"U","MEAN_MOTION":15.0882126,"ECCENTRICITY":0.000742,"INCLINATION":97.3543,"RA_OF_ASC_NODE":230.4636,"ARG_OF_PERICENTER":70.2541,"MEAN_ANOMALY":289.9487,"EPHEMERIS_TYPE":0,"NORAD_CAT_ID":43812,"ELEMENT_SET_NO":999,"REV_AT_EPOCH":41596,"BSTAR":0.000093473,"MEAN_MOTION_DOT":0.00001411,"MEAN_MOTION_DDOT":0},{"OBJECT_NAME":"GLOBAL-4","OBJECT_ID":"2019-054E","EPOCH":"2026-07-13T22:31:05.517984","CLASSIFICATION_TYPE":"U","MEAN_MOTION":15.6698377,"ECCENTRICITY":0.0005181,"INCLINATION":45.006,"RA_OF_ASC_NODE":81.7484,"ARG_OF_PERICENTER":188.4119,"MEAN_ANOMALY":171.6693,"EPHEMERIS_TYPE":0,"NORAD_CAT_ID":44499,"ELEMENT_SET_NO":999,"REV_AT_EPOCH":38455,"BSTAR":0.00034698,"MEAN_MOTION_DOT":0.00037606,"MEAN_MOTION_DDOT":0},{"OBJECT_NAME":"GLOBAL-9","OBJECT_ID":"2021-023G","EPOCH":"2026-07-13T22:04:58.849248","CLASSIFICATION_TYPE":"U","MEAN_MOTION":15.4757957,"ECCENTRICITY":0.0003218,"INCLINATION":44.9819,"RA_OF_ASC_NODE":100.1561,"ARG_OF_PERICENTER":161.3926,"MEAN_ANOMALY":198.7082,"EPHEMERIS_TYPE":0,"NORAD_CAT_ID":47971,"ELEMENT_SET_NO":999,"REV_AT_EPOCH":29908,"BSTAR":0.00026033,"MEAN_MOTION_DOT":0.00013371,"MEAN_MOTION_DDOT":0},{"OBJECT_NAME":"GLOBAL-14","OBJECT_ID":"2021-106A","EPOCH":"2026-07-14T04:36:17.047008","CLASSIFICATION_TYPE":"U","MEAN_MOTION":15.51793666,"ECCENTRICITY":0.0017647,"INCLINATION":42.0032,"RA_OF_ASC_NODE":130.4382,"ARG_OF_PERICENTER":217.3776,"MEAN_ANOMALY":142.5841,"EPHEMERIS_TYPE":0,"NORAD_CAT_ID":49469,"ELEMENT_SET_NO":999,"REV_AT_EPOCH":26232,"BSTAR":0.00026575,"MEAN_MOTION_DOT":0.00016106,"MEAN_MOTION_DDOT":0},{"OBJECT_NAME":"GLOBAL-12","OBJECT_ID":"2021-115BA","EPOCH":"2026-07-13T18:08:50.857152","CLASSIFICATION_TYPE":"U","MEAN_MOTION":15.5527574,"ECCENTRICITY":0.0002799,"INCLINATION":53.195,"RA_OF_ASC_NODE":276.6286,"ARG_OF_PERICENTER":70.6206,"MEAN_ANOMALY":289.5109,"EPHEMERIS_TYPE":0,"NORAD_CAT_ID":49772,"ELEMENT_SET_NO":999,"REV_AT_EPOCH":26003,"BSTAR":0.00029698,"MEAN_MOTION_DOT":0.00020043,"MEAN_MOTION_DDOT":0},{"OBJECT_NAME":"GLOBAL-13","OBJECT_ID":"2021-115BB","EPOCH":"2026-07-13T13:12:49.758624","CLASSIFICATION_TYPE":"U","MEAN_MOTION":15.47067083,"ECCENTRICITY":0.0000626,"INCLINATION":53.1977,"RA_OF_ASC_NODE":289.1685,"ARG_OF_PERICENTER":154.4418,"MEAN_ANOMALY":205.6622,"EPHEMERIS_TYPE":0,"NORAD_CAT_ID":49773,"ELEMENT_SET_NO":999,"REV_AT_EPOCH":25984,"BSTAR":0.00025013,"MEAN_MOTION_DOT":0.00012448,"MEAN_MOTION_DDOT":0},{"OBJECT_NAME":"GLOBAL-17","OBJECT_ID":"2021-120A","EPOCH":"2026-07-14T03:55:43.963392","CLASSIFICATION_TYPE":"U","MEAN_MOTION":15.53683718,"ECCENTRICITY":0.0013364,"INCLINATION":41.9936,"RA_OF_ASC_NODE":248.3737,"ARG_OF_PERICENTER":82.7744,"MEAN_ANOMALY":277.4619,"EPHEMERIS_TYPE":0,"NORAD_CAT_ID":49949,"ELEMENT_SET_NO":999,"REV_AT_EPOCH":25909,"BSTAR":0.00026224,"MEAN_MOTION_DOT":0.00016986,"MEAN_MOTION_DDOT":0},{"OBJECT_NAME":"GLOBAL-16","OBJECT_ID":"2021-120B","EPOCH":"2026-07-14T05:09:06.775200","CLASSIFICATION_TYPE":"U","MEAN_MOTION":15.51455752,"ECCENTRICITY":0.0011569,"INCLINATION":41.9935,"RA_OF_ASC_NODE":252.3229,"ARG_OF_PERICENTER":72.4162,"MEAN_ANOMALY":287.7945,"EPHEMERIS_TYPE":0,"NORAD_CAT_ID":49950,"ELEMENT_SET_NO":999,"REV_AT_EPOCH":25904,"BSTAR":0.0002582,"MEAN_MOTION_DOT":0.0001539,"MEAN_MOTION_DDOT":0},{"OBJECT_NAME":"GLOBAL-18","OBJECT_ID":"2022-034B","EPOCH":"2026-07-14T04:46:49.995264","CLASSIFICATION_TYPE":"U","MEAN_MOTION":15.47194583,"ECCENTRICITY":0.0004419,"INCLINATION":52.981,"RA_OF_ASC_NODE":127.4495,"ARG_OF_PERICENTER":21.1533,"MEAN_ANOMALY":338.9655,"EPHEMERIS_TYPE":0,"NORAD_CAT_ID":52196,"ELEMENT_SET_NO":999,"REV_AT_EPOCH":24114,"BSTAR":0.00027601,"MEAN_MOTION_DOT":0.0001385,"MEAN_MOTION_DDOT":0},{"OBJECT_NAME":"GLOBAL-19","OBJECT_ID":"2023-041B","EPOCH":"2026-07-13T23:27:11.116800","CLASSIFICATION_TYPE":"U","MEAN_MOTION":15.38662143,"ECCENTRICITY":0.0009472,"INCLINATION":42.0024,"RA_OF_ASC_NODE":45.5864,"ARG_OF_PERICENTER":210.7208,"MEAN_ANOMALY":149.3078,"EPHEMERIS_TYPE":0,"NORAD_CAT_ID":55982,"ELEMENT_SET_NO":999,"REV_AT_EPOCH":18605,"BSTAR":0.00022723,"MEAN_MOTION_DOT":0.00008628,"MEAN_MOTION_DDOT":0},{"OBJECT_NAME":"GLOBAL-5","OBJECT_ID":"2023-041C","EPOCH":"2026-07-13T22:40:46.804224","CLASSIFICATION_TYPE":"U","MEAN_MOTION":15.38673736,"ECCENTRICITY":0.000831,"INCLINATION":42.0015,"RA_OF_ASC_NODE":45.3007,"ARG_OF_PERICENTER":205.8388,"MEAN_ANOMALY":154.2037,"EPHEMERIS_TYPE":0,"NORAD_CAT_ID":55983,"ELEMENT_SET_NO":999,"REV_AT_EPOCH":18605,"BSTAR":0.00022136,"MEAN_MOTION_DOT":0.00008398,"MEAN_MOTION_DDOT":0}]}
