GLOBAL-2                
1 43812U 18099BG  26195.06791632  .00001411  00000+0  93473-4 0  9998
2 43812  97.3543 230.4636 0007420  70.2541 289.9487 15.08821260415962
GLOBAL-4                
1 44499U 19054E   26194.93825831  .00037606  00000+0  34698-3 0  9994
2 44499  45.0060  81.7484 0005181 188.4119 171.6693 15.66983770384556
GLOBAL-9                
1 47971U 21023G   26194.92012557  .00013371  00000+0  26033-3 0  9990
2 47971  44.9819 100.1561 0003218 161.3926 198.7082 15.47579570299084
GLOBAL-14               
1 49469U 21106A   26195.19186397  .00016106  00000+0  26575-3 0  9990
2 49469  42.0032 130.4382 0017647 217.3776 142.5841 15.51793666262323
GLOBAL-12               
1 49772U 21115BA  26194.75614418  .00020043  00000+0  29698-3 0  9992
2 49772  53.1950 276.6286 0002799  70.6206 289.5109 15.55275740260035
GLOBAL-13               
1 49773U 21115BB  26194.55057591  .00012448  00000+0  25013-3 0  9991
2 49773  53.1977 289.1685 0000626 154.4418 205.6622 15.47067083259846
GLOBAL-17               
1 49949U 21120A   26195.16370328  .00016986  00000+0  26224-3 0  9992
2 49949  41.9936 248.3737 0013364  82.7744 277.4619 15.53683718259090
GLOBAL-16               
1 49950U 21120B   26195.21466175  .00015390  00000+0  25820-3 0  9995
2 49950  41.9935 252.3229 0011569  72.4162 287.7945 15.51455752259041
GLOBAL-18               
1 52196U 22034B   26195.19918976  .00013850  00000+0  27601-3 0  9992
2 52196  52.9810 127.4495 0004419  21.1533 338.9655 15.47194583241143
GLOBAL-19               
1 55982U 23041B   26194.97721200  .00008628  00000+0  22723-3 0  9991
2 55982  42.0024  45.5864 0009472 210.7208 149.3078 15.38662143186058
GLOBAL-5                
1 55983U 23041C   26194.94498616  .00008398  00000+0  22136-3 0  9993
2 55983  42.0015  45.3007 0008310 205.8388 154.2037 15.38673736186050
